{
    "links": {
        "self": "http://www.neowsapp.com/rest/v1/neo/3831895?api_key=iIulBulltgU6a56xZRHN4H3l9WmuAYTsLGpBGhQ2"
    },
    "id": "3831895",
    "neo_reference_id": "3831895",
    "name": "(2018 UK1)",
    "designation": "2018 UK1",
    "nasa_jpl_url": "http://ssd.jpl.nasa.gov/sbdb.cgi?sstr=3831895",
    "absolute_magnitude_h": 26.4,
    "estimated_diameter": {
        "kilometers": {
            "estimated_diameter_min": 0.0139493823,
            "estimated_diameter_max": 0.0311917671
        },
        "meters": {
            "estimated_diameter_min": 13.9493822934,
            "estimated_diameter_max": 31.1917670523
        },
        "miles": {
            "estimated_diameter_min": 0.0086677416,
            "estimated_diameter_max": 0.0193816595
        },
        "feet": {
            "estimated_diameter_min": 45.7656914036,
            "estimated_diameter_max": 102.3351970157
        }
    },
    "is_potentially_hazardous_asteroid": false,
    "close_approach_data": [
        {
            "close_approach_date": "2016-11-06",
            "close_approach_date_full": "2016-Nov-06 02:32",
            "epoch_date_close_approach": 1478399520000,
            "relative_velocity": {
                "kilometers_per_second": "2.7530341805",
                "kilometers_per_hour": "9910.9230498453",
                "miles_per_hour": "6158.2621583886"
            },
            "miss_distance": {
                "astronomical": "1.5991633928",
                "lunar": "622.0745597992",
                "kilometers": "239231437.344853336",
                "miles": "148651522.1034185968"
            },
            "orbiting_body": "Juptr"
        },
        {
            "close_approach_date": "2018-10-14",
            "close_approach_date_full": "2018-Oct-14 04:48",
            "epoch_date_close_approach": 1539492480000,
            "relative_velocity": {
                "kilometers_per_second": "8.5503871099",
                "kilometers_per_hour": "30781.3935956102",
                "miles_per_hour": "19126.3609261168"
            },
            "miss_distance": {
                "astronomical": "0.0093557281",
                "lunar": "3.6393782309",
                "kilometers": "1399596.996059147",
                "miles": "869669.2462523486"
            },
            "orbiting_body": "Moon"
        },
        {
            "close_approach_date": "2018-10-14",
            "close_approach_date_full": "2018-Oct-14 12:52",
            "epoch_date_close_approach": 1539521520000,
            "relative_velocity": {
                "kilometers_per_second": "8.4281691967",
                "kilometers_per_hour": "30341.4091082127",
                "miles_per_hour": "18852.9716761558"
            },
            "miss_distance": {
                "astronomical": "0.0093345018",
                "lunar": "3.6311212002",
                "kilometers": "1396421.586791166",
                "miles": "867696.1384274508"
            },
            "orbiting_body": "Earth"
        }
    ],
    "orbital_data": {
        "orbit_id": "2",
        "orbit_determination_date": "2018-12-25 06:57:13",
        "first_observation_date": "2018-10-18",
        "last_observation_date": "2018-10-21",
        "data_arc_in_days": 3,
        "observations_used": 37,
        "orbit_uncertainty": "8",
        "minimum_orbit_intersection": ".00147346",
        "jupiter_tisserand_invariant": "3.233",
        "epoch_osculation": "2458410.5",
        "eccentricity": ".5925202544668371",
        "semi_major_axis": "2.442761091373667",
        "inclination": "1.743506313684231",
        "ascending_node_longitude": "192.6968133240788",
        "orbital_period": "1394.5044924063",
        "perihelion_distance": ".9953756679112532",
        "perihelion_argument": "175.1467780720864",
        "aphelion_distance": "3.890146514836081",
        "perihelion_time": "2458395.762563147635",
        "mean_anomaly": "3.804560900120505",
        "mean_motion": ".2581562138812466",
        "equinox": "J2000",
        "orbit_class": {
            "orbit_class_type": "APO",
            "orbit_class_description": "Near-Earth asteroid orbits which cross the Earth’s orbit similar to that of 1862 Apollo",
            "orbit_class_range": "a (semi-major axis) > 1.0 AU; q (perihelion) < 1.017 AU"
        }
    },
    "is_sentry_object": false
}